2024-203C               
1 61871U 24203C   26067.81773876  .00017593  00000+0  73309-3 0  9991
2 61871  97.4332 137.9023 0011476 346.2559  13.8364 15.23715458 73579
GITAI-SC1               
1 62388U 24247M   26068.21028328  .00006055  00000+0  28634-3 0  9995
2 62388  45.0010 131.8038 0002125 277.7935  82.2703 15.20258622 67517
